{
  "type": "FeatureCollection",
  "features": [
    {
      "type": "Feature",
      "properties": {
        "norad_id": 34121,
        "name": "COSMOS 2251 DEB",
        "group": "cosmos-2251-debris",
        "lat": -70.50491075734446,
        "lon": 60.87449934338259,
        "alt_km": 796.1197976372341,
        "timestamp": "2025-12-02T07:10:09.510071+00:00",
        "meta_object_name": "COSMOS 2251 DEB",
        "meta_object_id": "1993-036KS",
        "meta_epoch": "2025-12-01T20:02:48.013152",
        "meta_mean_motion": 13.91870223,
        "meta_eccentricity": 0.0239634,
        "meta_inclination": 73.9913,
        "meta_ra_of_asc_node": 115.8554,
        "meta_arg_of_pericenter": 323.6552,
        "meta_mean_anomaly": 158.1264,
        "meta_ephemeris_type": 0,
        "meta_classification_type": "U",
        "meta_norad_cat_id": 34121,
        "meta_element_set_no": 999,
        "meta_rev_at_epoch": 84973,
        "meta_bstar": 0.0010842,
        "meta_mean_motion_dot": 1.721e-05,
        "meta_mean_motion_ddot": 0,
        "tle_line1": "1 34121U 93036KS  25335.83527793  .00001721  00000+0  10842-2 0  9991",
        "tle_line2": "2 34121  73.9913 115.8554 0239634 323.6552 158.1264 13.91870223849731"
      },
      "geometry": {
        "type": "Point",
        "coordinates": [
          60.87449934338259,
          -70.50491075734446
        ]
      }
    },
    {
      "type": "Feature",
      "properties": {
        "norad_id": 34122,
        "name": "COSMOS 2251 DEB",
        "group": "cosmos-2251-debris",
        "lat": -47.99323673398532,
        "lon": 120.18388013071001,
        "alt_km": 682.8529980997682,
        "timestamp": "2025-12-02T07:10:09.510081+00:00",
        "meta_object_name": "COSMOS 2251 DEB",
        "meta_object_id": "1993-036KT",
        "meta_epoch": "2025-12-01T04:03:56.204064",
        "meta_mean_motion": 14.64812356,
        "meta_eccentricity": 0.00838093,
        "meta_inclination": 74.0349,
        "meta_ra_of_asc_node": 140.8889,
        "meta_arg_of_pericenter": 41.1741,
        "meta_mean_anomaly": 76.4069,
        "meta_ephemeris_type": 0,
        "meta_classification_type": "U",
        "meta_norad_cat_id": 34122,
        "meta_element_set_no": 999,
        "meta_rev_at_epoch": 88515,
        "meta_bstar": 0.0010709396,
        "meta_mean_motion_dot": 5.99e-05,
        "meta_mean_motion_ddot": 0,
        "tle_line1": "1 34122U 93036KT  25335.16940051  .00005990  00000+0  10709-2 0  9998",
        "tle_line2": "2 34122  74.0349 140.8889 0083809  41.1741  76.4069 14.64812356885154"
      },
      "geometry": {
        "type": "Point",
        "coordinates": [
          120.18388013071001,
          -47.99323673398532
        ]
      }
    },
    {
      "type": "Feature",
      "properties": {
        "norad_id": 34127,
        "name": "COSMOS 2251 DEB",
        "group": "cosmos-2251-debris",
        "lat": 38.00411700493753,
        "lon": 75.53146357252216,
        "alt_km": 841.3555749074303,
        "timestamp": "2025-12-02T07:10:09.510092+00:00",
        "meta_object_name": "COSMOS 2251 DEB",
        "meta_object_id": "1993-036KY",
        "meta_epoch": "2025-12-01T16:27:05.896224",
        "meta_mean_motion": 14.31350996,
        "meta_eccentricity": 0.0114471,
        "meta_inclination": 74.1795,
        "meta_ra_of_asc_node": 63.8382,
        "meta_arg_of_pericenter": 266.3593,
        "meta_mean_anomaly": 213.926,
        "meta_ephemeris_type": 0,
        "meta_classification_type": "U",
        "meta_norad_cat_id": 34127,
        "meta_element_set_no": 999,
        "meta_rev_at_epoch": 86613,
        "meta_bstar": 0.002057,
        "meta_mean_motion_dot": 5.834e-05,
        "meta_mean_motion_ddot": 0,
        "tle_line1": "1 34127U 93036KY  25335.68548491  .00005834  00000+0  20570-2 0  9996",
        "tle_line2": "2 34127  74.1795  63.8382 0114471 266.3593 213.9260 14.31350996866132"
      },
      "geometry": {
        "type": "Point",
        "coordinates": [
          75.53146357252216,
          38.00411700493753
        ]
      }
    },
    {
      "type": "Feature",
      "properties": {
        "norad_id": 34128,
        "name": "COSMOS 2251 DEB",
        "group": "cosmos-2251-debris",
        "lat": 16.553767723081243,
        "lon": 133.12601942166214,
        "alt_km": 566.4088980517954,
        "timestamp": "2025-12-02T07:10:09.510102+00:00",
        "meta_object_name": "COSMOS 2251 DEB",
        "meta_object_id": "1993-036KZ",
        "meta_epoch": "2025-12-01T10:19:31.149696",
        "meta_mean_motion": 15.00269605,
        "meta_eccentricity": 0.00264694,
        "meta_inclination": 73.9997,
        "meta_ra_of_asc_node": 319.7878,
        "meta_arg_of_pericenter": 73.7931,
        "meta_mean_anomaly": 79.7151,
        "meta_ephemeris_type": 0,
        "meta_classification_type": "U",
        "meta_norad_cat_id": 34128,
        "meta_element_set_no": 999,
        "meta_rev_at_epoch": 88997,
        "meta_bstar": 0.0026389303,
        "meta_mean_motion_dot": 0.00033421,
        "meta_mean_motion_ddot": 0,
        "tle_line1": "1 34128U 93036KZ  25335.43022164  .00033421  00000+0  26389-2 0  9991",
        "tle_line2": "2 34128  73.9997 319.7878 0026469  73.7931  79.7151 15.00269605889979"
      },
      "geometry": {
        "type": "Point",
        "coordinates": [
          133.12601942166214,
          16.553767723081243
        ]
      }
    },
    {
      "type": "Feature",
      "properties": {
        "norad_id": 34129,
        "name": "COSMOS 2251 DEB",
        "group": "cosmos-2251-debris",
        "lat": -52.66995222935988,
        "lon": -22.09170311278493,
        "alt_km": 668.105548468393,
        "timestamp": "2025-12-02T07:10:09.510111+00:00",
        "meta_object_name": "COSMOS 2251 DEB",
        "meta_object_id": "1993-036LA",
        "meta_epoch": "2025-12-01T10:16:02.682048",
        "meta_mean_motion": 14.75438233,
        "meta_eccentricity": 0.00326574,
        "meta_inclination": 74.0361,
        "meta_ra_of_asc_node": 1.657,
        "meta_arg_of_pericenter": 87.1032,
        "meta_mean_anomaly": 273.3878,
        "meta_ephemeris_type": 0,
        "meta_classification_type": "U",
        "meta_norad_cat_id": 34129,
        "meta_element_set_no": 999,
        "meta_rev_at_epoch": 61131,
        "meta_bstar": 0.0013814,
        "meta_mean_motion_dot": 9.45e-05,
        "meta_mean_motion_ddot": 0,
        "tle_line1": "1 34129U 93036LA  25335.42780882  .00009450  00000+0  13814-2 0  9993",
        "tle_line2": "2 34129  74.0361   1.6570 0032657  87.1032 273.3878 14.75438233611315"
      },
      "geometry": {
        "type": "Point",
        "coordinates": [
          -22.09170311278493,
          -52.66995222935988
        ]
      }
    },
    {
      "type": "Feature",
      "properties": {
        "norad_id": 34136,
        "name": "COSMOS 2251 DEB",
        "group": "cosmos-2251-debris",
        "lat": -61.56020460896095,
        "lon": 31.28025195836547,
        "alt_km": 651.5827467389154,
        "timestamp": "2025-12-02T07:10:09.510122+00:00",
        "meta_object_name": "COSMOS 2251 DEB",
        "meta_object_id": "1993-036LH",
        "meta_epoch": "2025-12-01T19:07:27.561792",
        "meta_mean_motion": 14.79931508,
        "meta_eccentricity": 0.0086788,
        "meta_inclination": 74.0214,
        "meta_ra_of_asc_node": 64.2109,
        "meta_arg_of_pericenter": 190.0141,
        "meta_mean_anomaly": 310.1627,
        "meta_ephemeris_type": 0,
        "meta_classification_type": "U",
        "meta_norad_cat_id": 34136,
        "meta_element_set_no": 999,
        "meta_rev_at_epoch": 89848,
        "meta_bstar": 0.00065409,
        "meta_mean_motion_dot": 5.234e-05,
        "meta_mean_motion_ddot": 0,
        "tle_line1": "1 34136U 93036LH  25335.79684678  .00005234  00000+0  65409-3 0  9991",
        "tle_line2": "2 34136  74.0214  64.2109 0086788 190.0141 310.1627 14.79931508898486"
      },
      "geometry": {
        "type": "Point",
        "coordinates": [
          31.28025195836547,
          -61.56020460896095
        ]
      }
    },
    {
      "type": "Feature",
      "properties": {
        "norad_id": 34139,
        "name": "COSMOS 2251 DEB",
        "group": "cosmos-2251-debris",
        "lat": 73.51358959350702,
        "lon": -10.675104027979078,
        "alt_km": 694.393263282197,
        "timestamp": "2025-12-02T07:10:09.510131+00:00",
        "meta_object_name": "COSMOS 2251 DEB",
        "meta_object_id": "1993-036LL",
        "meta_epoch": "2025-12-01T06:46:42.821184",
        "meta_mean_motion": 14.58791116,
        "meta_eccentricity": 0.00425975,
        "meta_inclination": 74.0308,
        "meta_ra_of_asc_node": 275.8957,
        "meta_arg_of_pericenter": 348.7359,
        "meta_mean_anomaly": 161.6808,
        "meta_ephemeris_type": 0,
        "meta_classification_type": "U",
        "meta_norad_cat_id": 34139,
        "meta_element_set_no": 999,
        "meta_rev_at_epoch": 87982,
        "meta_bstar": 0.0021304113,
        "meta_mean_motion_dot": 0.00010068,
        "meta_mean_motion_ddot": 0,
        "tle_line1": "1 34139U 93036LL  25335.28244006  .00010068  00000+0  21304-2 0  9991",
        "tle_line2": "2 34139  74.0308 275.8957 0042597 348.7359 161.6808 14.58791116879820"
      },
      "geometry": {
        "type": "Point",
        "coordinates": [
          -10.675104027979078,
          73.51358959350702
        ]
      }
    }
  ]
}